STARLINK-1511_new
1 15767C 20038AP  21326.13817737  .00005224  00000-0  35007-3 0  3268
2 15767  53.0551  58.1260 0001239  80.6113 151.4889 15.06389513    14
STARLINK-1511_old
1 25767C 20038AP  21325.17742830 -.00016473  00000-0 -11039-2 0  3259
2 25767  53.0554  62.4385 0001240  79.7705 339.2804 15.06409998    14
